[{"OBJECT_NAME":"NETSAT-3","OBJECT_ID":"2020-068V","EPOCH":"2026-04-27T05:56:31.991136","MEAN_MOTION":15.40910261,"ECCENTRICITY":0.00066894,"INCLINATION":97.8672,"RA_OF_ASC_NODE":119.7482,"ARG_OF_PERICENTER":143.4062,"MEAN_ANOMALY":216.7641,"EPHEMERIS_TYPE":0,"CLASSIFICATION_TYPE":"U","NORAD_CAT_ID":46505,"ELEMENT_SET_NO":999,"REV_AT_EPOCH":30783,"BSTAR":0.00053577162,"MEAN_MOTION_DOT":0.00021986,"MEAN_MOTION_DDOT":0},{"OBJECT_NAME":"NETSAT-1","OBJECT_ID":"2020-068W","EPOCH":"2026-04-26T16:02:02.950944","MEAN_MOTION":15.33369088,"ECCENTRICITY":0.00053191,"INCLINATION":97.8754,"RA_OF_ASC_NODE":114.0438,"ARG_OF_PERICENTER":165.3114,"MEAN_ANOMALY":194.8283,"EPHEMERIS_TYPE":0,"CLASSIFICATION_TYPE":"U","NORAD_CAT_ID":46506,"ELEMENT_SET_NO":999,"REV_AT_EPOCH":30740,"BSTAR":0.00048742672,"MEAN_MOTION_DOT":0.00015654,"MEAN_MOTION_DDOT":0},{"OBJECT_NAME":"NETSAT-2","OBJECT_ID":"2020-068X","EPOCH":"2026-04-27T06:06:10.725984","MEAN_MOTION":15.4382753,"ECCENTRICITY":0.00051138,"INCLINATION":97.8641,"RA_OF_ASC_NODE":121.1992,"ARG_OF_PERICENTER":147.9105,"MEAN_ANOMALY":212.2454,"EPHEMERIS_TYPE":0,"CLASSIFICATION_TYPE":"U","NORAD_CAT_ID":46507,"ELEMENT_SET_NO":999,"REV_AT_EPOCH":30787,"BSTAR":0.0005952701,"MEAN_MOTION_DOT":0.00026948,"MEAN_MOTION_DDOT":0},{"OBJECT_NAME":"GREENCUBE (IO-117)","OBJECT_ID":"2022-080E","EPOCH":"2026-04-26T23:31:05.247840","MEAN_MOTION":6.4258336,"ECCENTRICITY":0.00088196,"INCLINATION":70.1458,"RA_OF_ASC_NODE":316.0629,"ARG_OF_PERICENTER":301.5581,"MEAN_ANOMALY":58.4217,"EPHEMERIS_TYPE":0,"CLASSIFICATION_TYPE":"U","NORAD_CAT_ID":53109,"ELEMENT_SET_NO":999,"REV_AT_EPOCH":8877,"BSTAR":0,"MEAN_MOTION_DOT":-3.0e-8,"MEAN_MOTION_DDOT":0},{"OBJECT_NAME":"SITRO-AIS 5 (KATYS)","OBJECT_ID":"2023-091L","EPOCH":"2026-04-27T06:43:20.319456","MEAN_MOTION":15.28289086,"ECCENTRICITY":0.00099063,"INCLINATION":97.5099,"RA_OF_ASC_NODE":180.7331,"ARG_OF_PERICENTER":282.0642,"MEAN_ANOMALY":77.9487,"EPHEMERIS_TYPE":0,"CLASSIFICATION_TYPE":"U","NORAD_CAT_ID":57176,"ELEMENT_SET_NO":999,"REV_AT_EPOCH":15656,"BSTAR":0.00050096855,"MEAN_MOTION_DOT":0.00013759,"MEAN_MOTION_DDOT":0},{"OBJECT_NAME":"SITRO-AIS 6 (CHIRKIN)","OBJECT_ID":"2023-091AC","EPOCH":"2026-04-27T06:38:37.756896","MEAN_MOTION":15.25077241,"ECCENTRICITY":0.00102995,"INCLINATION":97.5106,"RA_OF_ASC_NODE":180.1092,"ARG_OF_PERICENTER":287.2308,"MEAN_ANOMALY":72.7802,"EPHEMERIS_TYPE":0,"CLASSIFICATION_TYPE":"U","NORAD_CAT_ID":57192,"ELEMENT_SET_NO":999,"REV_AT_EPOCH":15652,"BSTAR":0.00030788332,"MEAN_MOTION_DOT":7.639e-5,"MEAN_MOTION_DDOT":0},{"OBJECT_NAME":"SITRO-AIS 8 (ANOKHIN)","OBJECT_ID":"2023-091AD","EPOCH":"2026-04-27T06:02:47.473440","MEAN_MOTION":15.30774367,"ECCENTRICITY":0.0009094,"INCLINATION":97.5093,"RA_OF_ASC_NODE":182.0948,"ARG_OF_PERICENTER":277.4726,"MEAN_ANOMALY":82.5481,"EPHEMERIS_TYPE":0,"CLASSIFICATION_TYPE":"U","NORAD_CAT_ID":57193,"ELEMENT_SET_NO":999,"REV_AT_EPOCH":15665,"BSTAR":0.00058088333,"MEAN_MOTION_DOT":0.00017239,"MEAN_MOTION_DDOT":0},{"OBJECT_NAME":"SITRO-AIS 7 (FARTUSHNIY)","OBJECT_ID":"2023-091AE","EPOCH":"2026-04-27T06:28:46.323840","MEAN_MOTION":15.24792249,"ECCENTRICITY":0.0010183,"INCLINATION":97.5104,"RA_OF_ASC_NODE":179.9524,"ARG_OF_PERICENTER":288.5391,"MEAN_ANOMALY":71.474,"EPHEMERIS_TYPE":0,"CLASSIFICATION_TYPE":"U","NORAD_CAT_ID":57194,"ELEMENT_SET_NO":999,"REV_AT_EPOCH":15651,"BSTAR":0.00029724884,"MEAN_MOTION_DOT":7.309e-5,"MEAN_MOTION_DDOT":0},{"OBJECT_NAME":"SITRO-AIS 10 (BURDAEV)","OBJECT_ID":"2023-091AK","EPOCH":"2026-04-27T07:02:21.844032","MEAN_MOTION":15.36695721,"ECCENTRICITY":0.00056662,"INCLINATION":97.5111,"RA_OF_ASC_NODE":186.69,"ARG_OF_PERICENTER":244.7747,"MEAN_ANOMALY":115.2909,"EPHEMERIS_TYPE":0,"CLASSIFICATION_TYPE":"U","NORAD_CAT_ID":57199,"ELEMENT_SET_NO":999,"REV_AT_EPOCH":15694,"BSTAR":0.00063494534,"MEAN_MOTION_DOT":0.00022725,"MEAN_MOTION_DDOT":0},{"OBJECT_NAME":"SITRO-AIS 9 (SHCHUKIN)","OBJECT_ID":"2023-091AM","EPOCH":"2026-04-27T05:44:36.129120","MEAN_MOTION":15.36254582,"ECCENTRICITY":0.00058612,"INCLINATION":97.511,"RA_OF_ASC_NODE":186.4026,"ARG_OF_PERICENTER":245.9605,"MEAN_ANOMALY":114.1025,"EPHEMERIS_TYPE":0,"CLASSIFICATION_TYPE":"U","NORAD_CAT_ID":57201,"ELEMENT_SET_NO":999,"REV_AT_EPOCH":15692,"BSTAR":0.00065438854,"MEAN_MOTION_DOT":0.00023096,"MEAN_MOTION_DDOT":0},{"OBJECT_NAME":"SITRO-AIS 12 (SMIRENNIY)","OBJECT_ID":"2023-091AQ","EPOCH":"2026-04-27T05:44:41.710560","MEAN_MOTION":15.36530293,"ECCENTRICITY":0.00056491,"INCLINATION":97.5122,"RA_OF_ASC_NODE":186.8385,"ARG_OF_PERICENTER":238.2944,"MEAN_ANOMALY":121.7749,"EPHEMERIS_TYPE":0,"CLASSIFICATION_TYPE":"U","NORAD_CAT_ID":57204,"ELEMENT_SET_NO":999,"REV_AT_EPOCH":15694,"BSTAR":0.00064619266,"MEAN_MOTION_DOT":0.00023007,"MEAN_MOTION_DDOT":0},{"OBJECT_NAME":"SITRO-AIS 11 (SHEFFER)","OBJECT_ID":"2023-091AU","EPOCH":"2026-04-27T06:23:11.719968","MEAN_MOTION":15.36913371,"ECCENTRICITY":0.00055919,"INCLINATION":97.5119,"RA_OF_ASC_NODE":187.082,"ARG_OF_PERICENTER":237.5971,"MEAN_ANOMALY":122.4733,"EPHEMERIS_TYPE":0,"CLASSIFICATION_TYPE":"U","NORAD_CAT_ID":57208,"ELEMENT_SET_NO":999,"REV_AT_EPOCH":15696,"BSTAR":0.00064094311,"MEAN_MOTION_DOT":0.00023103,"MEAN_MOTION_DDOT":0},{"OBJECT_NAME":"SITRO-AIS 25","OBJECT_ID":"2024-039R","EPOCH":"2026-04-27T07:35:37.557024","MEAN_MOTION":14.93101969,"ECCENTRICITY":0.01472154,"INCLINATION":95.3926,"RA_OF_ASC_NODE":200.1433,"ARG_OF_PERICENTER":145.2525,"MEAN_ANOMALY":215.8425,"EPHEMERIS_TYPE":0,"CLASSIFICATION_TYPE":"U","NORAD_CAT_ID":59066,"ELEMENT_SET_NO":999,"REV_AT_EPOCH":11713,"BSTAR":0.00061599312,"MEAN_MOTION_DOT":7.912e-5,"MEAN_MOTION_DDOT":0},{"OBJECT_NAME":"SITRO-AIS 26","OBJECT_ID":"2024-039S","EPOCH":"2026-04-27T07:27:50.049216","MEAN_MOTION":14.92906892,"ECCENTRICITY":0.01474924,"INCLINATION":95.3924,"RA_OF_ASC_NODE":200.0475,"ARG_OF_PERICENTER":145.8041,"MEAN_ANOMALY":215.2793,"EPHEMERIS_TYPE":0,"CLASSIFICATION_TYPE":"U","NORAD_CAT_ID":59067,"ELEMENT_SET_NO":999,"REV_AT_EPOCH":11712,"BSTAR":0.00055904384,"MEAN_MOTION_DOT":7.144e-5,"MEAN_MOTION_DDOT":0},{"OBJECT_NAME":"SITRO-AIS 27","OBJECT_ID":"2024-039T","EPOCH":"2026-04-27T07:05:14.858304","MEAN_MOTION":14.93310467,"ECCENTRICITY":0.01465408,"INCLINATION":95.3921,"RA_OF_ASC_NODE":200.2855,"ARG_OF_PERICENTER":144.6552,"MEAN_ANOMALY":216.4497,"EPHEMERIS_TYPE":0,"CLASSIFICATION_TYPE":"U","NORAD_CAT_ID":59068,"ELEMENT_SET_NO":999,"REV_AT_EPOCH":11714,"BSTAR":0.00052736545,"MEAN_MOTION_DOT":6.793e-5,"MEAN_MOTION_DDOT":0},{"OBJECT_NAME":"SITRO-AIS 28","OBJECT_ID":"2024-039U","EPOCH":"2026-04-27T06:34:27.667776","MEAN_MOTION":14.93349892,"ECCENTRICITY":0.01463673,"INCLINATION":95.3928,"RA_OF_ASC_NODE":200.3153,"ARG_OF_PERICENTER":144.5783,"MEAN_ANOMALY":216.5273,"EPHEMERIS_TYPE":0,"CLASSIFICATION_TYPE":"U","NORAD_CAT_ID":59071,"ELEMENT_SET_NO":999,"REV_AT_EPOCH":11714,"BSTAR":0.00051017345,"MEAN_MOTION_DOT":6.575e-5,"MEAN_MOTION_DDOT":0}]
