NETSAT-3                
1 46505U 20068V   26117.24759249  .00021986  00000+0  53577-3 0  9990
2 46505  97.8672 119.7482 0006689 143.4062 216.7641 15.40910261307839
NETSAT-1                
1 46506U 20068W   26116.66808971  .00015654  00000+0  48743-3 0  9997
2 46506  97.8754 114.0438 0005319 165.3114 194.8283 15.33369088307408
NETSAT-2                
1 46507U 20068X   26117.25429081  .00026948  00000+0  59527-3 0  9995
2 46507  97.8641 121.1992 0005113 147.9105 212.2454 15.43827530307874
GREENCUBE (IO-117)      
1 53109U 22080E   26116.97992185 -.00000003  00000+0  00000+0 0  9998
2 53109  70.1458 316.0629 0008819 301.5581  58.4217  6.42583360 88775
SITRO-AIS 5 (KATYS)     
1 57176U 23091L   26117.28009629  .00013759  00000+0  50097-3 0  9992
2 57176  97.5099 180.7331 0009906 282.0642  77.9487 15.28289086156562
SITRO-AIS 6 (CHIRKIN)   
1 57192U 23091AC  26117.27682589  .00007639  00000+0  30788-3 0  9996
2 57192  97.5106 180.1092 0010299 287.2308  72.7802 15.25077241156525
SITRO-AIS 8 (ANOKHIN)   
1 57193U 23091AD  26117.25193835  .00017239  00000+0  58088-3 0  9996
2 57193  97.5093 182.0948 0009094 277.4726  82.5481 15.30774367156653
SITRO-AIS 7 (FARTUSHNIY)
1 57194U 23091AE  26117.26998060  .00007309  00000+0  29725-3 0  9994
2 57194  97.5104 179.9524 0010183 288.5391  71.4740 15.24792249156516
SITRO-AIS 10 (BURDAEV)  
1 57199U 23091AK  26117.29330838  .00022725  00000+0  63495-3 0  9996
2 57199  97.5111 186.6900 0005666 244.7747 115.2909 15.36695721156942
SITRO-AIS 9 (SHCHUKIN)  
1 57201U 23091AM  26117.23930705  .00023096  00000+0  65439-3 0  9995
2 57201  97.5110 186.4026 0005861 245.9605 114.1025 15.36254582156926
SITRO-AIS 12 (SMIRENNIY)
1 57204U 23091AQ  26117.23937165  .00023007  00000+0  64619-3 0  9996
2 57204  97.5122 186.8385 0005649 238.2944 121.7749 15.36530293156944
SITRO-AIS 11 (SHEFFER)  
1 57208U 23091AU  26117.26610787  .00023103  00000+0  64094-3 0  9995
2 57208  97.5119 187.0820 0005591 237.5971 122.4733 15.36913371156964
SITRO-AIS 25            
1 59066U 24039R   26117.31640691  .00007912  00000+0  61599-3 0  9992
2 59066  95.3926 200.1433 0147215 145.2525 215.8425 14.93101969117132
SITRO-AIS 26            
1 59067U 24039S   26117.31099594  .00007144  00000+0  55904-3 0  9993
2 59067  95.3924 200.0475 0147492 145.8041 215.2793 14.92906892117120
SITRO-AIS 27            
1 59068U 24039T   26117.29531086  .00006793  00000+0  52737-3 0  9998
2 59068  95.3921 200.2855 0146540 144.6552 216.4497 14.93310467117143
SITRO-AIS 28            
1 59071U 24039U   26117.27393134  .00006575  00000+0  51017-3 0  9998
2 59071  95.3928 200.3153 0146367 144.5783 216.5273 14.93349892117145
